NORAD_CAT_ID,OBJECT_NAME,OBJECT_TYPE,EPOCH,MEAN_MOTION,ECCENTRICITY,INCLINATION,RA_OF_ASC_NODE,ARG_OF_PERICENTER,MEAN_ANOMALY,BSTAR,MEAN_MOTION_DOT,MEAN_MOTION_DDOT,TLE_LINE0,TLE_LINE1,TLE_LINE2,SEMIMAJOR_AXIS,PERIOD,APOGEE,PERIGEE,DECAYED
54071.0,STARLINK-5168,PAYLOAD,2023-03-06 20:50:53,15.0885168,0.000135,53.2165,236.6121,80.4937,279.6207,0.00024184,3.564e-05,0.0,0 STARLINK-5168,1 54071U 22136W   23065.86867594  .00003564  00000-0  24184-3 0  9990,2 54071  53.2165 236.6121 0001350  80.4937 279.6207 15.08851680 20964,6917.845,95.437,540.644,538.776,0.0
54071.0,STARLINK-5168,PAYLOAD,2023-03-07 11:09:22,15.08837723,0.0001137,53.2168,233.9376,82.1249,277.9872,3.7835e-05,3.14e-06,0.0,0 STARLINK-5168,1 54071U 22136W   23066.46484256  .00000314  00000-0  37835-4 0  9995,2 54071  53.2168 233.9376 0001137  82.1249 277.9872 15.08837723 21532,6917.887,95.438,540.539,538.966,0.0
54071.0,STARLINK-5168,PAYLOAD,2023-03-07 17:30:54,15.08849051,0.0001396,53.217,232.7488,86.5986,273.5166,0.00021084,3.07e-05,0.0,0 STARLINK-5168,1 54071U 22136W   23066.72979869  .00003070  00000-0  21084-3 0  9993,2 54071  53.2170 232.7488 0001396  86.5986 273.5166 15.08849051 21578,6917.853,95.437,540.683,538.752,0.0
54071.0,STARLINK-5168,PAYLOAD,2023-03-08 11:00:09,15.08840323,0.0001478,53.2159,229.476,94.031,266.0851,0.00011008,1.464e-05,0.0,0 STARLINK-5168,1 54071U 22136W   23067.45844158  .00001464  00000-0  11008-3 0  9996,2 54071  53.2159 229.4760 0001478  94.0310 266.0851 15.08840323 21680,6917.879,95.438,540.767,538.722,0.0
54071.0,STARLINK-5168,PAYLOAD,2023-03-08 20:32:27,15.08856153,0.0001431,53.2166,227.6918,81.519,278.5964,0.00056798,8.767e-05,0.0,0 STARLINK-5168,1 54071U 22136W   23067.85587831  .00008767  00000-0  56798-3 0  9990,2 54071  53.2166 227.6918 0001431  81.5190 278.5964 15.08856153 21264,6917.831,95.437,540.686,538.706,0.0
54071.0,STARLINK-5168,PAYLOAD,2023-03-09 17:12:28,15.08854719,0.0001124,53.2162,223.8265,80.1915,279.9204,0.00068883,0.00010696,0.0,0 STARLINK-5168,1 54071U 22136W   23068.71699983  .00010696  00000-0  68883-3 0  9990,2 54071  53.2162 223.8265 0001124  80.1915 279.9204 15.08854719 21877,6917.835,95.437,540.478,538.923,0.0
54071.0,STARLINK-5168,PAYLOAD,2023-03-10 10:41:43,15.08839342,7e-05,53.216,220.5555,37.9244,322.1797,0.00028569,4.262e-05,0.0,0 STARLINK-5168,1 54071U 22136W   23069.44564396  .00004262  00000-0  28569-3 0  9999,2 54071  53.2160 220.5555 0000700  37.9244 322.1797 15.08839342 21980,6917.882,95.438,540.232,539.263,0.0
54071.0,STARLINK-5168,PAYLOAD,2023-03-10 17:03:16,15.088418,7.41e-05,53.2165,219.3655,40.2192,319.8855,0.00039633,6.026e-05,0.0,0 STARLINK-5168,1 54071U 22136W   23069.71060391  .00006026  00000-0  39633-3 0  9999,2 54071  53.2165 219.3655 0000741  40.2192 319.8855 15.08841800 21548,6917.875,95.437,540.253,539.227,0.0
54071.0,STARLINK-5168,PAYLOAD,2023-03-11 10:32:30,15.08834899,0.0001054,53.2151,216.0938,80.7513,279.3598,0.00014312,1.99e-05,0.0,0 STARLINK-5168,1 54071U 22136W   23070.43924624  .00001990  00000-0  14312-3 0  9990,2 54071  53.2151 216.0938 0001054  80.7513 279.3598 15.08834899 22135,6917.896,95.438,540.49,539.032,0.0
54071.0,STARLINK-5168,PAYLOAD,2023-03-11 20:04:49,15.08843151,0.0001051,53.2164,214.31,77.8526,282.2584,0.00014117,1.96e-05,0.0,0 STARLINK-5168,1 54071U 22136W   23070.83668423  .00001960  00000-0  14117-3 0  9996,2 54071  53.2164 214.3100 0001051  77.8526 282.2584 15.08843151 21711,6917.871,95.437,540.463,539.009,0.0
54071.0,STARLINK-5168,PAYLOAD,2023-03-12 08:47:55,15.08833265,5.4e-05,53.2154,211.9276,68.0506,292.0543,-4.7338e-05,-1.041e-05,0.0,0 STARLINK-5168,1 54071U 22136W   23071.36661156 -.00001041  00000-0 -47338-4 0  9995,2 54071  53.2154 211.9276 0000540  68.0506 292.0543 15.08833265 22270,6917.901,95.438,540.14,539.392,0.0
54071.0,STARLINK-5168,PAYLOAD,2023-03-12 10:23:18,15.08828893,0.0001248,53.2176,211.6362,67.4172,292.6952,-6.6643e-05,-1.348e-05,0.0,0 STARLINK-5168,1 54071U 22136W   23071.43285510 -.00001348  00000-0 -66643-4 0  9999,2 54071  53.2176 211.6362 0001248  67.4172 292.6952 15.08828893 21804,6917.914,95.438,540.643,538.916,0.0
54071.0,STARLINK-5168,PAYLOAD,2023-03-12 13:34:04,15.08838022,5.56e-05,53.2164,211.0389,41.883,318.2204,2.6383e-05,1.32e-06,0.0,0 STARLINK-5168,1 54071U 22136W   23071.56533160  .00000132  00000-0  26383-4 0  9995,2 54071  53.2164 211.0389 0000556  41.8830 318.2204 15.08838022 21824,6917.886,95.438,540.136,539.367,0.0
54071.0,STARLINK-5168,PAYLOAD,2023-03-13 08:38:42,15.08838403,0.0001351,53.2176,207.4722,64.1007,296.0124,8.0944e-05,1e-05,0.0,0 STARLINK-5168,1 54071U 22136W   23072.36021574  .00001000  00000-0  80944-4 0  9993,2 54071  53.2176 207.4722 0001351  64.1007 296.0124 15.08838403 21945,6917.885,95.438,540.685,538.816,0.0
54071.0,STARLINK-5168,PAYLOAD,2023-03-14 14:51:01,15.0884452,0.0001102,53.2182,201.8231,73.4616,286.6497,0.00017708,2.532e-05,0.0,0 STARLINK-5168,1 54071U 22136W   23073.61877105  .00002532  00000-0  17708-3 0  9999,2 54071  53.2182 201.8231 0001102  73.4616 286.6497 15.08844520 22618,6917.867,95.437,540.494,538.969,0.0
54071.0,STARLINK-5168,PAYLOAD,2023-03-14 16:26:24,15.08848954,0.0001384,53.2173,201.5278,45.455,314.6555,0.00026272,3.897e-05,0.0,0 STARLINK-5168,1 54071U 22136W   23073.68501038  .00003897  00000-0  26272-3 0  9996,2 54071  53.2173 201.5278 0001384  45.4550 314.6555 15.08848954 22144,6917.853,95.437,540.675,538.761,0.0
54071.0,STARLINK-5168,PAYLOAD,2023-03-15 11:31:01,15.08854163,0.0001065,53.2188,197.9589,98.5515,261.5598,0.0002281,3.346e-05,0.0,0 STARLINK-5168,1 54071U 22136W   23074.47988404  .00003346  00000-0  22810-3 0  9993,2 54071  53.2188 197.9589 0001065  98.5515 261.5598 15.08854163 22268,6917.837,95.437,540.439,538.965,0.0
54071.0,STARLINK-5168,PAYLOAD,2023-03-15 16:17:11,15.08851168,0.0001054,53.2169,197.0678,69.6925,290.418,0.00019248,2.778e-05,0.0,0 STARLINK-5168,1 54071U 22136W   23074.67860495  .00002778  00000-0  19248-3 0  9993,2 54071  53.2169 197.0678 0001054  69.6925 290.4180 15.08851168 22775,6917.846,95.437,540.44,538.982,0.0
54071.0,STARLINK-5168,PAYLOAD,2023-03-16 11:21:50,15.08829759,0.0001989,53.2139,193.4936,117.1147,243.0049,-0.00012445,-2.268e-05,0.0,0 STARLINK-5168,1 54071U 22136W   23075.47349782 -.00002268  00000-0 -12445-3 0  9991,2 54071  53.2139 193.4936 0001989 117.1147 243.0049 15.08829759 22893,6917.912,95.438,541.153,538.401,0.0
54071.0,STARLINK-5168,PAYLOAD,2023-03-16 12:57:13,15.0882874,0.0001468,53.2156,193.2009,91.5142,268.6018,-0.00011903,-2.181e-05,0.0,0 STARLINK-5168,1 54071U 22136W   23075.53974021 -.00002181  00000-0 -11903-3 0  9990,2 54071  53.2156 193.2009 0001468  91.5142 268.6018 15.08828740 22420,6917.915,95.438,540.795,538.764,0.0
54071.0,STARLINK-5168,PAYLOAD,2023-03-16 17:43:22,15.08833315,0.000151,53.2154,192.3063,105.9712,254.1447,-4.3011e-05,-9.72e-06,0.0,0 STARLINK-5168,1 54071U 22136W   23075.73845814 -.00000972  00000-0 -43011-4 0  9991,2 54071  53.2154 192.3063 0001510 105.9712 254.1447 15.08833315 22452,6917.901,95.438,540.81,538.721,0.0
54071.0,STARLINK-5168,PAYLOAD,2023-03-17 14:23:24,15.08837056,0.0001102,53.2156,188.4433,94.1057,266.0061,8.3031e-07,-2.75e-06,0.0,0 STARLINK-5168,1 54071U 22136W   23076.59958419 -.00000275  00000-0  83031-6 0  9995,2 54071  53.2156 188.4433 0001102  94.1057 266.0061 15.08837056 23067,6917.889,95.438,540.517,538.992,0.0
54071.0,STARLINK-5168,PAYLOAD,2023-03-18 14:14:10,15.0887075,0.000141,53.2177,183.9839,112.8345,247.2796,0.00088891,0.00013899,0.0,0 STARLINK-5168,1 54071U 22136W   23077.59317593  .00013899  00000-0  88891-3 0  9999,2 54071  53.2177 183.9839 0001410 112.8345 247.2796 15.08870750 23211,6917.786,95.436,540.627,538.676,0.0
54071.0,STARLINK-5168,PAYLOAD,2023-03-18 17:24:56,15.0888801,0.0001356,53.2173,183.3881,108.5156,251.5984,0.0013343,0.00021039,0.0,0 STARLINK-5168,1 54071U 22136W   23077.72565196  .00021039  00000-0  13343-2 0  9992,2 54071  53.2173 183.3881 0001356 108.5156 251.5984 15.08888010 22752,6917.734,95.435,540.537,538.661,0.0
54071.0,STARLINK-5168,PAYLOAD,2023-03-19 06:08:01,15.08866763,0.0003233,53.2164,181.0093,78.7078,281.4278,0.00066373,0.00010299,0.0,0 STARLINK-5168,1 54071U 22136W   23078.25557781  .00010299  00000-0  66373-3 0  9990,2 54071  53.2164 181.0093 0003233  78.7078 281.4278 15.08866763 23311,6917.799,95.436,541.9,537.427,0.0
54071.0,STARLINK-5168,PAYLOAD,2023-03-19 12:29:34,15.08833092,0.000131,53.2175,179.821,84.1462,275.9679,0.00095908,0.00015006,0.0,0 STARLINK-5168,1 54071U 22136W   23078.52053973  .00015006  00000-0  95908-3 0  9991,2 54071  53.2175 179.8210 0001310  84.1462 275.9679 15.08833092 22873,6917.902,95.438,540.673,538.86,0.0
54071.0,STARLINK-5168,PAYLOAD,2023-03-19 14:04:57,15.08835241,0.000125,53.2174,179.5229,77.1567,282.9565,0.0014342,0.00022608,0.0,0 STARLINK-5168,1 54071U 22136W   23078.58677989  .00022608  00000-0  14342-2 0  9994,2 54071  53.2174 179.5229 0001250  77.1567 282.9565 15.08835241 23365,6917.895,95.438,540.625,538.895,0.0
54071.0,STARLINK-5168,PAYLOAD,2023-03-19 15:40:20,15.08835757,0.0001312,53.2176,179.2265,78.3543,281.7596,0.0015655,0.00024712,0.0,0 STARLINK-5168,1 54071U 22136W   23078.65302029  .00024712  00000-0  15655-2 0  9998,2 54071  53.2176 179.2265 0001312  78.3543 281.7596 15.08835757 22890,6917.893,95.438,540.666,538.851,0.0
54071.0,STARLINK-5168,PAYLOAD,2023-03-20 07:34:12,15.08852849,0.0001526,53.2184,176.2526,84.0484,276.0682,0.0011573,0.00018185,0.0,0 STARLINK-5168,1 54071U 22136W   23079.31542051  .00018185  00000-0  11573-2 0  9995,2 54071  53.2184 176.2526 0001526  84.0484 276.0682 15.08852849 23470,6917.841,95.437,540.762,538.65,0.0
54071.0,STARLINK-5168,PAYLOAD,2023-03-20 12:20:21,15.08856544,0.0001552,53.2183,175.3607,81.57,278.5468,0.0010048,0.00015747,0.0,0 STARLINK-5168,1 54071U 22136W   23079.51413860  .00015747  00000-0  10048-2 0  9999,2 54071  53.2183 175.3607 0001552  81.5700 278.5468 15.08856544 23027,6917.83,95.437,540.768,538.621,0.0
